HULIANWANG DIGUI 13E    
1 66416U 25258E   25342.36343695  .00000715  00000+0  40678-3 0  9990
2 66416  50.0052 280.4795 0005924 347.9368  12.1400 14.20131727  4035
HULIANWANG DIGUI 13F    
1 66417U 25258F   25342.57273529  .00000599  00000+0  35158-3 0  9999
2 66417  49.9999 279.5633 0005643 346.8249  13.2514 14.20307849  4068
HULIANWANG DIGUI 13G    
1 66418U 25258G   25342.56734149  .00000494  00000+0  30018-3 0  9993
2 66418  49.9993 279.5380 0005987 346.7253  13.3500 14.20782766  4068
HULIANWANG DIGUI 13H    
1 66419U 25258H   25342.42481209  .00000456  00000+0  28196-3 0  9997
2 66419  50.0007 280.1123 0005273 342.4085  17.6643 14.20896780  4040
HULIANWANG DIGUI 13J    
1 66420U 25258J   25342.35293699  .00000454  00000+0  28047-3 0  9998
2 66420  50.0024 280.4093 0004864 350.6291   9.4529 14.21069190  4023
CZ-12 R/B               
1 66421U 25258K   25342.56290941  .00000362  00000+0  15618-3 0  9997
2 66421  49.9961 276.0723 0064512 234.3839 125.1061 14.42321980  4112
STARLINK-35617          
1 66422U 25259A   25342.53602329  .00084406  00000+0  20061-2 0  9991
2 66422  43.0031  72.3335 0001224 249.5748 110.4978 15.40691452  5512
STARLINK-35618          
1 66423U 25259B   25342.83335647  .00042762  00000+0  10264-2 0  9994
2 66423  43.0005  70.5909 0001477 271.5792 312.0615 15.40664451  5657
STARLINK-35588          
1 66424U 25259C   25342.83335647  .00048216  00000+0  11567-2 0  9992
2 66424  43.0005  70.5610 0001611 288.6103 307.5289 15.40634465  5650
STARLINK-35555          
1 66425U 25259D   25342.83335647  .00045303  00000+0  10869-2 0  9991
2 66425  43.0007  70.5292 0001342 270.2087 338.2848 15.40656926  5656
STARLINK-35589          
1 66426U 25259E   25342.83335647 -.00052489  00000+0 -12573-2 0  9991
2 66426  43.0007  70.4999 0001373 262.4162 358.5389 15.40714670  5657
STARLINK-35611          
1 66427U 25259F   25342.83335647  .00044459  00000+0  10668-2 0  9991
2 66427  43.0007  70.4684 0001459 281.9494 351.4669 15.40658701  5653
