CCSDS_OMM_VERS = 2.0
CREATION_DATE  = 
ORIGINATOR     = 

OBJECT_NAME    = HULIANWANG DIGUI 13E
OBJECT_ID      = 2025-258E
CENTER_NAME    = EARTH
REF_FRAME      = TEME
TIME_SYSTEM    = UTC
MEAN_ELEMENT_THEORY = SGP/SGP4

EPOCH          = 2025-12-08T08:43:20.952480
MEAN_MOTION    = 14.20131727
ECCENTRICITY   = .00059242
INCLINATION    = 50.0052
RA_OF_ASC_NODE = 280.4795
ARG_OF_PERICENTER = 347.9368
MEAN_ANOMALY   = 12.1400

EPHEMERIS_TYPE = 0
CLASSIFICATION_TYPE = U
NORAD_CAT_ID   = 66416
ELEMENT_SET_NO = 999
REV_AT_EPOCH   = 403
BSTAR          = .40678029E-3
MEAN_MOTION_DOT = .715E-5
MEAN_MOTION_DDOT = 0

CCSDS_OMM_VERS = 2.0
CREATION_DATE  = 
ORIGINATOR     = 

OBJECT_NAME    = HULIANWANG DIGUI 13F
OBJECT_ID      = 2025-258F
CENTER_NAME    = EARTH
REF_FRAME      = TEME
TIME_SYSTEM    = UTC
MEAN_ELEMENT_THEORY = SGP/SGP4

EPOCH          = 2025-12-08T13:44:44.329056
MEAN_MOTION    = 14.20307849
ECCENTRICITY   = .00056434
INCLINATION    = 49.9999
RA_OF_ASC_NODE = 279.5633
ARG_OF_PERICENTER = 346.8249
MEAN_ANOMALY   = 13.2514

EPHEMERIS_TYPE = 0
CLASSIFICATION_TYPE = U
NORAD_CAT_ID   = 66417
ELEMENT_SET_NO = 999
REV_AT_EPOCH   = 406
BSTAR          = .35158092E-3
MEAN_MOTION_DOT = .599E-5
MEAN_MOTION_DDOT = 0

CCSDS_OMM_VERS = 2.0
CREATION_DATE  = 
ORIGINATOR     = 

OBJECT_NAME    = HULIANWANG DIGUI 13G
OBJECT_ID      = 2025-258G
CENTER_NAME    = EARTH
REF_FRAME      = TEME
TIME_SYSTEM    = UTC
MEAN_ELEMENT_THEORY = SGP/SGP4

EPOCH          = 2025-12-08T13:36:58.304736
MEAN_MOTION    = 14.20782766
ECCENTRICITY   = .00059872
INCLINATION    = 49.9993
RA_OF_ASC_NODE = 279.5380
ARG_OF_PERICENTER = 346.7253
MEAN_ANOMALY   = 13.3500

EPHEMERIS_TYPE = 0
CLASSIFICATION_TYPE = U
NORAD_CAT_ID   = 66418
ELEMENT_SET_NO = 999
REV_AT_EPOCH   = 406
BSTAR          = .30017826E-3
MEAN_MOTION_DOT = .494E-5
MEAN_MOTION_DDOT = 0

CCSDS_OMM_VERS = 2.0
CREATION_DATE  = 
ORIGINATOR     = 

OBJECT_NAME    = HULIANWANG DIGUI 13H
OBJECT_ID      = 2025-258H
CENTER_NAME    = EARTH
REF_FRAME      = TEME
TIME_SYSTEM    = UTC
MEAN_ELEMENT_THEORY = SGP/SGP4

EPOCH          = 2025-12-08T10:11:43.764576
MEAN_MOTION    = 14.20896780
ECCENTRICITY   = .00052731
INCLINATION    = 50.0007
RA_OF_ASC_NODE = 280.1123
ARG_OF_PERICENTER = 342.4085
MEAN_ANOMALY   = 17.6643

EPHEMERIS_TYPE = 0
CLASSIFICATION_TYPE = U
NORAD_CAT_ID   = 66419
ELEMENT_SET_NO = 999
REV_AT_EPOCH   = 404
BSTAR          = .28195579E-3
MEAN_MOTION_DOT = .456E-5
MEAN_MOTION_DDOT = 0

CCSDS_OMM_VERS = 2.0
CREATION_DATE  = 
ORIGINATOR     = 

OBJECT_NAME    = HULIANWANG DIGUI 13J
OBJECT_ID      = 2025-258J
CENTER_NAME    = EARTH
REF_FRAME      = TEME
TIME_SYSTEM    = UTC
MEAN_ELEMENT_THEORY = SGP/SGP4

EPOCH          = 2025-12-08T08:28:13.755936
MEAN_MOTION    = 14.21069190
ECCENTRICITY   = .00048643
INCLINATION    = 50.0024
RA_OF_ASC_NODE = 280.4093
ARG_OF_PERICENTER = 350.6291
MEAN_ANOMALY   = 9.4529

EPHEMERIS_TYPE = 0
CLASSIFICATION_TYPE = U
NORAD_CAT_ID   = 66420
ELEMENT_SET_NO = 999
REV_AT_EPOCH   = 402
BSTAR          = .28046556E-3
MEAN_MOTION_DOT = .454E-5
MEAN_MOTION_DDOT = 0

CCSDS_OMM_VERS = 2.0
CREATION_DATE  = 
ORIGINATOR     = 

OBJECT_NAME    = CZ-12 R/B
OBJECT_ID      = 2025-258K
CENTER_NAME    = EARTH
REF_FRAME      = TEME
TIME_SYSTEM    = UTC
MEAN_ELEMENT_THEORY = SGP/SGP4

EPOCH          = 2025-12-08T13:30:35.373024
MEAN_MOTION    = 14.42321980
ECCENTRICITY   = .00645125
INCLINATION    = 49.9961
RA_OF_ASC_NODE = 276.0723
ARG_OF_PERICENTER = 234.3839
MEAN_ANOMALY   = 125.1061

EPHEMERIS_TYPE = 0
CLASSIFICATION_TYPE = U
NORAD_CAT_ID   = 66421
ELEMENT_SET_NO = 999
REV_AT_EPOCH   = 411
BSTAR          = .1561766E-3
MEAN_MOTION_DOT = .362E-5
MEAN_MOTION_DDOT = 0

CCSDS_OMM_VERS = 2.0
CREATION_DATE  = 
ORIGINATOR     = 

OBJECT_NAME    = STARLINK-35617
OBJECT_ID      = 2025-259A
CENTER_NAME    = EARTH
REF_FRAME      = TEME
TIME_SYSTEM    = UTC
MEAN_ELEMENT_THEORY = SGP/SGP4

EPOCH          = 2025-12-08T12:51:52.412256
MEAN_MOTION    = 15.40691452
ECCENTRICITY   = .00012248
INCLINATION    = 43.0031
RA_OF_ASC_NODE = 72.3335
ARG_OF_PERICENTER = 249.5748
MEAN_ANOMALY   = 110.4978

EPHEMERIS_TYPE = 0
CLASSIFICATION_TYPE = U
NORAD_CAT_ID   = 66422
ELEMENT_SET_NO = 999
REV_AT_EPOCH   = 551
BSTAR          = .20061466E-2
MEAN_MOTION_DOT = .84406E-3
MEAN_MOTION_DDOT = 0

CCSDS_OMM_VERS = 2.0
CREATION_DATE  = 
ORIGINATOR     = 

OBJECT_NAME    = STARLINK-35618
OBJECT_ID      = 2025-259B
CENTER_NAME    = EARTH
REF_FRAME      = TEME
TIME_SYSTEM    = UTC
MEAN_ELEMENT_THEORY = SGP/SGP4

EPOCH          = 2025-12-08T20:00:01.999008
MEAN_MOTION    = 15.40664451
ECCENTRICITY   = .0001477
INCLINATION    = 43.0005
RA_OF_ASC_NODE = 70.5909
ARG_OF_PERICENTER = 271.5792
MEAN_ANOMALY   = 312.0615

EPHEMERIS_TYPE = 0
CLASSIFICATION_TYPE = U
NORAD_CAT_ID   = 66423
ELEMENT_SET_NO = 999
REV_AT_EPOCH   = 565
BSTAR          = .10264E-2
MEAN_MOTION_DOT = .42762E-3
MEAN_MOTION_DDOT = 0

CCSDS_OMM_VERS = 2.0
CREATION_DATE  = 
ORIGINATOR     = 

OBJECT_NAME    = STARLINK-35588
OBJECT_ID      = 2025-259C
CENTER_NAME    = EARTH
REF_FRAME      = TEME
TIME_SYSTEM    = UTC
MEAN_ELEMENT_THEORY = SGP/SGP4

EPOCH          = 2025-12-08T20:00:01.999008
MEAN_MOTION    = 15.40634465
ECCENTRICITY   = .0001611
INCLINATION    = 43.0005
RA_OF_ASC_NODE = 70.5610
ARG_OF_PERICENTER = 288.6103
MEAN_ANOMALY   = 307.5289

EPHEMERIS_TYPE = 0
CLASSIFICATION_TYPE = U
NORAD_CAT_ID   = 66424
ELEMENT_SET_NO = 999
REV_AT_EPOCH   = 565
BSTAR          = .11567E-2
MEAN_MOTION_DOT = .48216E-3
MEAN_MOTION_DDOT = 0

CCSDS_OMM_VERS = 2.0
CREATION_DATE  = 
ORIGINATOR     = 

OBJECT_NAME    = STARLINK-35555
OBJECT_ID      = 2025-259D
CENTER_NAME    = EARTH
REF_FRAME      = TEME
TIME_SYSTEM    = UTC
MEAN_ELEMENT_THEORY = SGP/SGP4

EPOCH          = 2025-12-08T20:00:01.999008
MEAN_MOTION    = 15.40656926
ECCENTRICITY   = .0001342
INCLINATION    = 43.0007
RA_OF_ASC_NODE = 70.5292
ARG_OF_PERICENTER = 270.2087
MEAN_ANOMALY   = 338.2848

EPHEMERIS_TYPE = 0
CLASSIFICATION_TYPE = U
NORAD_CAT_ID   = 66425
ELEMENT_SET_NO = 999
REV_AT_EPOCH   = 565
BSTAR          = .10869E-2
MEAN_MOTION_DOT = .45303E-3
MEAN_MOTION_DDOT = 0

CCSDS_OMM_VERS = 2.0
CREATION_DATE  = 
ORIGINATOR     = 

OBJECT_NAME    = STARLINK-35589
OBJECT_ID      = 2025-259E
CENTER_NAME    = EARTH
REF_FRAME      = TEME
TIME_SYSTEM    = UTC
MEAN_ELEMENT_THEORY = SGP/SGP4

EPOCH          = 2025-12-08T20:00:01.999008
MEAN_MOTION    = 15.40714670
ECCENTRICITY   = .0001373
INCLINATION    = 43.0007
RA_OF_ASC_NODE = 70.4999
ARG_OF_PERICENTER = 262.4162
MEAN_ANOMALY   = 358.5389

EPHEMERIS_TYPE = 0
CLASSIFICATION_TYPE = U
NORAD_CAT_ID   = 66426
ELEMENT_SET_NO = 999
REV_AT_EPOCH   = 565
BSTAR          = -.12573E-2
MEAN_MOTION_DOT = -.52489E-3
MEAN_MOTION_DDOT = 0

CCSDS_OMM_VERS = 2.0
CREATION_DATE  = 
ORIGINATOR     = 

OBJECT_NAME    = STARLINK-35611
OBJECT_ID      = 2025-259F
CENTER_NAME    = EARTH
REF_FRAME      = TEME
TIME_SYSTEM    = UTC
MEAN_ELEMENT_THEORY = SGP/SGP4

EPOCH          = 2025-12-08T20:00:01.999008
MEAN_MOTION    = 15.40658701
ECCENTRICITY   = .0001459
INCLINATION    = 43.0007
RA_OF_ASC_NODE = 70.4684
ARG_OF_PERICENTER = 281.9494
MEAN_ANOMALY   = 351.4669

EPHEMERIS_TYPE = 0
CLASSIFICATION_TYPE = U
NORAD_CAT_ID   = 66427
ELEMENT_SET_NO = 999
REV_AT_EPOCH   = 565
BSTAR          = .10668E-2
MEAN_MOTION_DOT = .44459E-3
MEAN_MOTION_DDOT = 0

